[
  {
    "OBJECT_NAME": "ARIRANG-2 (KOMPSAT-2)",
    "OBJECT_ID": "2006-031A",
    "EPOCH": "2025-05-06T05:11:41.146944",
    "MEAN_MOTION": 14.64268767,
    "ECCENTRICITY": 0.0013146,
    "INCLINATION": 97.8396,
    "RA_OF_ASC_NODE": 325.3381,
    "ARG_OF_PERICENTER": 286.4135,
    "MEAN_ANOMALY": 164.3581,
    "EPHEMERIS_TYPE": 0,
    "CLASSIFICATION_TYPE": "U",
    "NORAD_CAT_ID": 29268,
    "ELEMENT_SET_NO": 999,
    "REV_AT_EPOCH": 201,
    "BSTAR": 0.00013138,
    "MEAN_MOTION_DOT": 6.48e-06,
    "MEAN_MOTION_DDOT": 0
  },
  {
    "OBJECT_NAME": "LAPAN-TUBSAT",
    "OBJECT_ID": "2007-001A",
    "EPOCH": "2025-05-06T05:48:17.192160",
    "MEAN_MOTION": 14.85284243,
    "ECCENTRICITY": 0.0013735,
    "INCLINATION": 98.1082,
    "RA_OF_ASC_NODE": 112.1409,
    "ARG_OF_PERICENTER": 72.4745,
    "MEAN_ANOMALY": 287.7969,
    "EPHEMERIS_TYPE": 0,
    "CLASSIFICATION_TYPE": "U",
    "NORAD_CAT_ID": 29709,
    "ELEMENT_SET_NO": 999,
    "REV_AT_EPOCH": 99074,
    "BSTAR": 0.00013018,
    "MEAN_MOTION_DOT": 1.063e-05,
    "MEAN_MOTION_DDOT": 0
  },
  {
    "OBJECT_NAME": "HAIYANG-1B",
    "OBJECT_ID": "2007-010A",
    "EPOCH": "2025-05-05T20:09:08.051328",
    "MEAN_MOTION": 14.30882145,
    "ECCENTRICITY": 0.0012964,
    "INCLINATION": 98.3135,
    "RA_OF_ASC_NODE": 119.4712,
    "ARG_OF_PERICENTER": 334.4884,
    "MEAN_ANOMALY": 25.5658,
    "EPHEMERIS_TYPE": 0,
    "CLASSIFICATION_TYPE": "U",
    "NORAD_CAT_ID": 31113,
    "ELEMENT_SET_NO": 999,
    "REV_AT_EPOCH": 94237,
    "BSTAR": 8.4794e-05,
    "MEAN_MOTION_DOT": 1.81e-06,
    "MEAN_MOTION_DDOT": 0
  },
  {
    "OBJECT_NAME": "COSMO-SKYMED 1",
    "OBJECT_ID": "2007-023A",
    "EPOCH": "2025-05-06T03:22:35.444928",
    "MEAN_MOTION": 14.86446785,
    "ECCENTRICITY": 0.0001338,
    "INCLINATION": 97.8877,
    "RA_OF_ASC_NODE": 310.7296,
    "ARG_OF_PERICENTER": 89.0139,
    "MEAN_ANOMALY": 271.123,
    "EPHEMERIS_TYPE": 0,
    "CLASSIFICATION_TYPE": "U",
    "NORAD_CAT_ID": 31598,
    "ELEMENT_SET_NO": 999,
    "REV_AT_EPOCH": 96903,
    "BSTAR": 0.00011997,
    "MEAN_MOTION_DOT": 1.005e-05,
    "MEAN_MOTION_DDOT": 0
  },
  {
    "OBJECT_NAME": "TERRASAR-X",
    "OBJECT_ID": "2007-026A",
    "EPOCH": "2025-05-05T11:12:37.637856",
    "MEAN_MOTION": 15.19147525,
    "ECCENTRICITY": 0.0001607,
    "INCLINATION": 97.4472,
    "RA_OF_ASC_NODE": 134.0009,
    "ARG_OF_PERICENTER": 82.549,
    "MEAN_ANOMALY": 277.5927,
    "EPHEMERIS_TYPE": 0,
    "CLASSIFICATION_TYPE": "U",
    "NORAD_CAT_ID": 31698,
    "ELEMENT_SET_NO": 999,
    "REV_AT_EPOCH": 99132,
    "BSTAR": 0.00010817,
    "MEAN_MOTION_DOT": 2.205e-05,
    "MEAN_MOTION_DDOT": 0
  },
  {
    "OBJECT_NAME": "WORLDVIEW-1 (WV-1)",
    "OBJECT_ID": "2007-041A",
    "EPOCH": "2025-05-05T20:10:20.468352",
    "MEAN_MOTION": 15.24654707,
    "ECCENTRICITY": 0.0004309,
    "INCLINATION": 97.3881,
    "RA_OF_ASC_NODE": 246.5702,
    "ARG_OF_PERICENTER": 209.9962,
    "MEAN_ANOMALY": 150.1029,
    "EPHEMERIS_TYPE": 0,
    "CLASSIFICATION_TYPE": "U",
    "NORAD_CAT_ID": 32060,
    "ELEMENT_SET_NO": 999,
    "REV_AT_EPOCH": 98087,
    "BSTAR": 0.00041241,
    "MEAN_MOTION_DOT": 0.00010122,
    "MEAN_MOTION_DDOT": 0
  },
  {
    "OBJECT_NAME": "YAOGAN-3",
    "OBJECT_ID": "2007-055A",
    "EPOCH": "2025-05-06T05:18:36.042336",
    "MEAN_MOTION": 14.88624278,
    "ECCENTRICITY": 0.0001448,
    "INCLINATION": 97.8558,
    "RA_OF_ASC_NODE": 154.7226,
    "ARG_OF_PERICENTER": 84.6179,
    "MEAN_ANOMALY": 275.5203,
    "EPHEMERIS_TYPE": 0,
    "CLASSIFICATION_TYPE": "U",
    "NORAD_CAT_ID": 32289,
    "ELEMENT_SET_NO": 999,
    "REV_AT_EPOCH": 94533,
    "BSTAR": 0.00037233,
    "MEAN_MOTION_DOT": 3.415e-05,
    "MEAN_MOTION_DDOT": 0
  },
  {
    "OBJECT_NAME": "COSMO-SKYMED 2",
    "OBJECT_ID": "2007-059A",
    "EPOCH": "2025-05-06T03:21:47.798784",
    "MEAN_MOTION": 14.82148376,
    "ECCENTRICITY": 0.0001345,
    "INCLINATION": 97.8877,
    "RA_OF_ASC_NODE": 310.6495,
    "ARG_OF_PERICENTER": 88.0417,
    "MEAN_ANOMALY": 272.095,
    "EPHEMERIS_TYPE": 0,
    "CLASSIFICATION_TYPE": "U",
    "NORAD_CAT_ID": 32376,
    "ELEMENT_SET_NO": 999,
    "REV_AT_EPOCH": 94178,
    "BSTAR": 0.00011112,
    "MEAN_MOTION_DOT": 8.32e-06,
    "MEAN_MOTION_DDOT": 0
  },
  {
    "OBJECT_NAME": "RADARSAT-2",
    "OBJECT_ID": "2007-061A",
    "EPOCH": "2025-05-06T05:27:11.263680",
    "MEAN_MOTION": 14.29984622,
    "ECCENTRICITY": 0.0001261,
    "INCLINATION": 98.5792,
    "RA_OF_ASC_NODE": 133.9644,
    "ARG_OF_PERICENTER": 90.2286,
    "MEAN_ANOMALY": 269.9041,
    "EPHEMERIS_TYPE": 0,
    "CLASSIFICATION_TYPE": "U",
    "NORAD_CAT_ID": 32382,
    "ELEMENT_SET_NO": 999,
    "REV_AT_EPOCH": 90790,
    "BSTAR": 6.7024e-05,
    "MEAN_MOTION_DOT": 1.29e-06,
    "MEAN_MOTION_DDOT": 0
  },
  {
    "OBJECT_NAME": "CARTOSAT-2A",
    "OBJECT_ID": "2008-021A",
    "EPOCH": "2025-05-06T03:36:22.682592",
    "MEAN_MOTION": 14.78809215,
    "ECCENTRICITY": 0.0010696,
    "INCLINATION": 97.8178,
    "RA_OF_ASC_NODE": 182.5017,
    "ARG_OF_PERICENTER": 2.2115,
    "MEAN_ANOMALY": 357.9142,
    "EPHEMERIS_TYPE": 0,
    "CLASSIFICATION_TYPE": "U",
    "NORAD_CAT_ID": 32783,
    "ELEMENT_SET_NO": 999,
    "REV_AT_EPOCH": 91873,
    "BSTAR": 0.00016449,
    "MEAN_MOTION_DOT": 1.16e-05,
    "MEAN_MOTION_DDOT": 0
  },
  {
    "OBJECT_NAME": "HUANJING 1A (HJ-1A)",
    "OBJECT_ID": "2008-041A",
    "EPOCH": "2025-05-06T04:30:52.566624",
    "MEAN_MOTION": 14.82587238,
    "ECCENTRICITY": 0.0020479,
    "INCLINATION": 97.6405,
    "RA_OF_ASC_NODE": 124.0092,
    "ARG_OF_PERICENTER": 38.6936,
    "MEAN_ANOMALY": 321.574,
    "EPHEMERIS_TYPE": 0,
    "CLASSIFICATION_TYPE": "U",
    "NORAD_CAT_ID": 33320,
    "ELEMENT_SET_NO": 999,
    "REV_AT_EPOCH": 89817,
    "BSTAR": 0.00029425,
    "MEAN_MOTION_DOT": 2.325e-05,
    "MEAN_MOTION_DDOT": 0
  },
  {
    "OBJECT_NAME": "HUANJING 1B (HJ-1B)",
    "OBJECT_ID": "2008-041B",
    "EPOCH": "2025-05-06T04:59:12.626592",
    "MEAN_MOTION": 14.82162544,
    "ECCENTRICITY": 0.0038787,
    "INCLINATION": 97.6296,
    "RA_OF_ASC_NODE": 128.2252,
    "ARG_OF_PERICENTER": 79.1921,
    "MEAN_ANOMALY": 281.3655,
    "EPHEMERIS_TYPE": 0,
    "CLASSIFICATION_TYPE": "U",
    "NORAD_CAT_ID": 33321,
    "ELEMENT_SET_NO": 999,
    "REV_AT_EPOCH": 89819,
    "BSTAR": 0.00023551,
    "MEAN_MOTION_DOT": 1.849e-05,
    "MEAN_MOTION_DDOT": 0
  },
  {
    "OBJECT_NAME": "GEOEYE 1",
    "OBJECT_ID": "2008-042A",
    "EPOCH": "2025-05-05T22:30:41.699232",
    "MEAN_MOTION": 14.64630142,
    "ECCENTRICITY": 0.0002979,
    "INCLINATION": 98.1225,
    "RA_OF_ASC_NODE": 200.0466,
    "ARG_OF_PERICENTER": 251.4278,
    "MEAN_ANOMALY": 108.6601,
    "EPHEMERIS_TYPE": 0,
    "CLASSIFICATION_TYPE": "U",
    "NORAD_CAT_ID": 33331,
    "ELEMENT_SET_NO": 999,
    "REV_AT_EPOCH": 89053,
    "BSTAR": 0.00016671,
    "MEAN_MOTION_DOT": 8.38e-06,
    "MEAN_MOTION_DDOT": 0
  },
  {
    "OBJECT_NAME": "THEOS",
    "OBJECT_ID": "2008-049A",
    "EPOCH": "2025-05-06T03:31:23.557152",
    "MEAN_MOTION": 14.2010057,
    "ECCENTRICITY": 0.0001136,
    "INCLINATION": 98.6113,
    "RA_OF_ASC_NODE": 190.3587,
    "ARG_OF_PERICENTER": 87.0711,
    "MEAN_ANOMALY": 273.0596,
    "EPHEMERIS_TYPE": 0,
    "CLASSIFICATION_TYPE": "U",
    "NORAD_CAT_ID": 33396,
    "ELEMENT_SET_NO": 999,
    "REV_AT_EPOCH": 86021,
    "BSTAR": 6.1676e-05,
    "MEAN_MOTION_DOT": 8.9e-07,
    "MEAN_MOTION_DDOT": 0
  }
]