ARIRANG-2 (KOMPSAT-2)   
1 29268U 06031A   25126.21644846  .00000648  00000+0  13138-3 0  9994
2 29268  97.8396 325.3381 0013146 286.4135 164.3581 14.64268767  2012
LAPAN-TUBSAT            
1 29709U 07001A   25126.24186565  .00001063  00000+0  13018-3 0  9993
2 29709  98.1082 112.1409 0013735  72.4745 287.7969 14.85284243990741
HAIYANG-1B              
1 31113U 07010A   25125.83967652  .00000181  00000+0  84794-4 0  9993
2 31113  98.3135 119.4712 0012964 334.4884  25.5658 14.30882145942373
COSMO-SKYMED 1          
1 31598U 07023A   25126.14068802  .00001005  00000+0  11997-3 0  9998
2 31598  97.8877 310.7296 0001338  89.0139 271.1230 14.86446785969033
TERRASAR-X              
1 31698U 07026A   25125.46710229  .00002205  00000+0  10817-3 0  9996
2 31698  97.4472 134.0009 0001607  82.5490 277.5927 15.19147525991324
WORLDVIEW-1 (WV-1)      
1 32060U 07041A   25125.84051468  .00010122  00000+0  41241-3 0  9994
2 32060  97.3881 246.5702 0004309 209.9962 150.1029 15.24654707980879
YAOGAN-3                
1 32289U 07055A   25126.22125049  .00003415  00000+0  37233-3 0  9995
2 32289  97.8558 154.7226 0001448  84.6179 275.5203 14.88624278945335
COSMO-SKYMED 2          
1 32376U 07059A   25126.14013656  .00000832  00000+0  11112-3 0  9995
2 32376  97.8877 310.6495 0001345  88.0417 272.0950 14.82148376941786
RADARSAT-2              
1 32382U 07061A   25126.22721370  .00000129  00000+0  67024-4 0  9996
2 32382  98.5792 133.9644 0001261  90.2286 269.9041 14.29984622907900
CARTOSAT-2A             
1 32783U 08021A   25126.15026253  .00001160  00000+0  16449-3 0  9998
2 32783  97.8178 182.5017 0010696   2.2115 357.9142 14.78809215918736
HUANJING 1A (HJ-1A)     
1 33320U 08041A   25126.18810841  .00002325  00000+0  29425-3 0  9997
2 33320  97.6405 124.0092 0020479  38.6936 321.5740 14.82587238898172
HUANJING 1B (HJ-1B)     
1 33321U 08041B   25126.20778503  .00001849  00000+0  23551-3 0  9993
2 33321  97.6296 128.2252 0038787  79.1921 281.3655 14.82162544898199
GEOEYE 1                
1 33331U 08042A   25125.93798263  .00000838  00000+0  16671-3 0  9991
2 33331  98.1225 200.0466 0002979 251.4278 108.6601 14.64630142890534
THEOS                   
1 33396U 08049A   25126.14680043  .00000089  00000+0  61676-4 0  9993
2 33396  98.6113 190.3587 0001136  87.0711 273.0596 14.20100570860211
